HELIOS 1B               
1 25977U 99064A   26066.62882216  .00002550  00000+0  28635-3 0  9991
2 25977  98.1695 328.8118 0002458  77.7272 282.4219 14.87689900684954
TERRA                   
1 25994U 99068A   26066.60337939  .00000605  00000+0  13241-3 0  9995
2 25994  97.9598 120.1178 0002573 156.4312 323.6835 14.61012261394771
SL-16 R/B               
1 26070U 00006B   26066.53967546  .00000012  00000+0  30514-4 0  9995
2 26070  71.0011 102.3587 0016926 193.2974 166.7705 14.15825753348257
TITAN 4B R/B            
1 26474U 00047B   26066.51002287  .00006233  00000+0  38897-3 0  9990
2 26474  67.9897  46.6389 0038429  37.9775 322.4073 15.09536374392582
ENVISAT                 
1 27386U 02009A   26066.46601937  .00000214  00000+0  83188-4 0  9991
2 27386  98.3726  20.1163 0001332  83.7518  26.4096 14.39036107258856
IDEFIX & ARIANE 42P R/B 
1 27422U 02021B   26066.39826363  .00000435  00000+0  18176-3 0  9999
2 27422  98.5867   5.0320 0011439 189.0069 171.0911 14.31024469243691
AQUA                    
1 27424U 02022A   26066.63004551  .00001523  00000+0  31373-3 0  9999
2 27424  98.4173  33.9574 0000578  71.1611 343.2161 14.61971555268438
CZ-4B R/B               
1 27432U 02024C   26066.61497700  .00000057  00000+0  52103-4 0  9996
2 27432  98.8843 120.0321 0050581  30.0715 122.6422 14.14547340228941
MIDORI II (ADEOS-II)    
1 27597U 02056A   26066.63355861  .00000458  00000+0  19771-3 0  9994
2 27597  98.7767  25.0969 0001678  45.9691 314.1628 14.29283354210002
H-2A R/B                
1 27601U 02056E   26066.48363215  .00000400  00000+0  15444-3 0  9995
2 27601  98.3200  26.9332 0070370 167.2179 302.8292 14.33759243213794
CZ-4B R/B               
1 28059U 03049C   26066.59555494  .00000566  00000+0  14128-3 0  9991
2 28059  98.6878  61.4181 0047174 237.4343 122.2292 14.55018110186294
CZ-2C R/B               
1 28222U 04012C   26066.62619499  .00072009  00000+0  75049-3 0  9994
2 28222  97.7231 131.7239 0013119 317.9669  42.0581 15.64209559203954
SL-16 R/B               
1 28353U 04021B   26066.61848488 -.00000221  00000+0 -90298-4 0  9993
2 28353  70.9994 236.8392 0003905  12.7873 347.3348 14.14598705122549
CZ-4B R/B               
1 28415U 04035C   26066.61874867  .00011516  00000+0  40525-3 0  9991
2 28415  97.3499 100.8859 0031230 339.1896  20.8070 15.29018515179597
CZ-2C R/B               
1 28480U 04046B   26066.38200537  .00000168  00000+0  77269-4 0  9993
2 28480  98.1985 341.5096 0139756 161.2384 199.4023 14.26991150108171
ARIANE 5 R/B            
1 28499U 04049H   26066.47687991  .00001148  00000+0  13269-3 0  9997
2 28499  98.2621 234.8510 0084091 359.1171   0.9881 14.85261737145464
CZ-2D R/B               
1 28738U 05024B   26066.59265544  .00055454  00000+0  68598-3 0  9990
2 28738  97.3596  81.6618 0006208  52.1217 308.0601 15.59917426139452
