[{"OBJECT_NAME":"HELIOS 1B","OBJECT_ID":"1999-064A","EPOCH":"2026-03-07T15:05:30.234624","MEAN_MOTION":14.876899,"ECCENTRICITY":0.00024584,"INCLINATION":98.1695,"RA_OF_ASC_NODE":328.8118,"ARG_OF_PERICENTER":77.7272,"MEAN_ANOMALY":282.4219,"EPHEMERIS_TYPE":0,"CLASSIFICATION_TYPE":"U","NORAD_CAT_ID":25977,"ELEMENT_SET_NO":999,"REV_AT_EPOCH":68495,"BSTAR":0.00028635424,"MEAN_MOTION_DOT":2.55e-5,"MEAN_MOTION_DDOT":0},{"OBJECT_NAME":"TERRA","OBJECT_ID":"1999-068A","EPOCH":"2026-03-07T14:28:51.979296","MEAN_MOTION":14.61012261,"ECCENTRICITY":0.00025739,"INCLINATION":97.9598,"RA_OF_ASC_NODE":120.1178,"ARG_OF_PERICENTER":156.4312,"MEAN_ANOMALY":323.6835,"EPHEMERIS_TYPE":0,"CLASSIFICATION_TYPE":"U","NORAD_CAT_ID":25994,"ELEMENT_SET_NO":999,"REV_AT_EPOCH":39477,"BSTAR":0.00013241389,"MEAN_MOTION_DOT":6.05e-6,"MEAN_MOTION_DDOT":0},{"OBJECT_NAME":"SL-16 R/B","OBJECT_ID":"2000-006B","EPOCH":"2026-03-07T12:57:07.959744","MEAN_MOTION":14.15825753,"ECCENTRICITY":0.00169265,"INCLINATION":71.0011,"RA_OF_ASC_NODE":102.3587,"ARG_OF_PERICENTER":193.2974,"MEAN_ANOMALY":166.7705,"EPHEMERIS_TYPE":0,"CLASSIFICATION_TYPE":"U","NORAD_CAT_ID":26070,"ELEMENT_SET_NO":999,"REV_AT_EPOCH":34825,"BSTAR":3.0513868e-5,"MEAN_MOTION_DOT":1.2e-7,"MEAN_MOTION_DDOT":0},{"OBJECT_NAME":"TITAN 4B R/B","OBJECT_ID":"2000-047B","EPOCH":"2026-03-07T12:14:25.975968","MEAN_MOTION":15.09536374,"ECCENTRICITY":0.00384296,"INCLINATION":67.9897,"RA_OF_ASC_NODE":46.6389,"ARG_OF_PERICENTER":37.9775,"MEAN_ANOMALY":322.4073,"EPHEMERIS_TYPE":0,"CLASSIFICATION_TYPE":"U","NORAD_CAT_ID":26474,"ELEMENT_SET_NO":999,"REV_AT_EPOCH":39258,"BSTAR":0.0003889695,"MEAN_MOTION_DOT":6.233e-5,"MEAN_MOTION_DDOT":0},{"OBJECT_NAME":"ENVISAT","OBJECT_ID":"2002-009A","EPOCH":"2026-03-07T11:11:04.073568","MEAN_MOTION":14.39036107,"ECCENTRICITY":0.00013326,"INCLINATION":98.3726,"RA_OF_ASC_NODE":20.1163,"ARG_OF_PERICENTER":83.7518,"MEAN_ANOMALY":26.4096,"EPHEMERIS_TYPE":0,"CLASSIFICATION_TYPE":"U","NORAD_CAT_ID":27386,"ELEMENT_SET_NO":999,"REV_AT_EPOCH":25885,"BSTAR":8.3187997e-5,"MEAN_MOTION_DOT":2.14e-6,"MEAN_MOTION_DDOT":0},{"OBJECT_NAME":"IDEFIX & ARIANE 42P R/B","OBJECT_ID":"2002-021B","EPOCH":"2026-03-07T09:33:29.977632","MEAN_MOTION":14.31024469,"ECCENTRICITY":0.00114398,"INCLINATION":98.5867,"RA_OF_ASC_NODE":5.032,"ARG_OF_PERICENTER":189.0069,"MEAN_ANOMALY":171.0911,"EPHEMERIS_TYPE":0,"CLASSIFICATION_TYPE":"U","NORAD_CAT_ID":27422,"ELEMENT_SET_NO":999,"REV_AT_EPOCH":24369,"BSTAR":0.00018175883,"MEAN_MOTION_DOT":4.35e-6,"MEAN_MOTION_DDOT":0},{"OBJECT_NAME":"AQUA","OBJECT_ID":"2002-022A","EPOCH":"2026-03-07T15:07:15.932064","MEAN_MOTION":14.61971555,"ECCENTRICITY":5.786e-5,"INCLINATION":98.4173,"RA_OF_ASC_NODE":33.9574,"ARG_OF_PERICENTER":71.1611,"MEAN_ANOMALY":343.2161,"EPHEMERIS_TYPE":0,"CLASSIFICATION_TYPE":"U","NORAD_CAT_ID":27424,"ELEMENT_SET_NO":999,"REV_AT_EPOCH":26843,"BSTAR":0.00031372685,"MEAN_MOTION_DOT":1.523e-5,"MEAN_MOTION_DDOT":0},{"OBJECT_NAME":"CZ-4B R/B","OBJECT_ID":"2002-024C","EPOCH":"2026-03-07T14:45:34.012800","MEAN_MOTION":14.1454734,"ECCENTRICITY":0.00505813,"INCLINATION":98.8843,"RA_OF_ASC_NODE":120.0321,"ARG_OF_PERICENTER":30.0715,"MEAN_ANOMALY":122.6422,"EPHEMERIS_TYPE":0,"CLASSIFICATION_TYPE":"U","NORAD_CAT_ID":27432,"ELEMENT_SET_NO":999,"REV_AT_EPOCH":22894,"BSTAR":5.2103351e-5,"MEAN_MOTION_DOT":5.7e-7,"MEAN_MOTION_DDOT":0},{"OBJECT_NAME":"MIDORI II (ADEOS-II)","OBJECT_ID":"2002-056A","EPOCH":"2026-03-07T15:12:19.463904","MEAN_MOTION":14.29283354,"ECCENTRICITY":0.00016784,"INCLINATION":98.7767,"RA_OF_ASC_NODE":25.0969,"ARG_OF_PERICENTER":45.9691,"MEAN_ANOMALY":314.1628,"EPHEMERIS_TYPE":0,"CLASSIFICATION_TYPE":"U","NORAD_CAT_ID":27597,"ELEMENT_SET_NO":999,"REV_AT_EPOCH":21000,"BSTAR":0.00019771222,"MEAN_MOTION_DOT":4.58e-6,"MEAN_MOTION_DDOT":0},{"OBJECT_NAME":"H-2A R/B","OBJECT_ID":"2002-056E","EPOCH":"2026-03-07T11:36:25.817760","MEAN_MOTION":14.33759243,"ECCENTRICITY":0.00703702,"INCLINATION":98.32,"RA_OF_ASC_NODE":26.9332,"ARG_OF_PERICENTER":167.2179,"MEAN_ANOMALY":302.8292,"EPHEMERIS_TYPE":0,"CLASSIFICATION_TYPE":"U","NORAD_CAT_ID":27601,"ELEMENT_SET_NO":999,"REV_AT_EPOCH":21379,"BSTAR":0.00015443758,"MEAN_MOTION_DOT":4.0e-6,"MEAN_MOTION_DDOT":0},{"OBJECT_NAME":"CZ-4B R/B","OBJECT_ID":"2003-049C","EPOCH":"2026-03-07T14:17:35.946816","MEAN_MOTION":14.5501811,"ECCENTRICITY":0.00471745,"INCLINATION":98.6878,"RA_OF_ASC_NODE":61.4181,"ARG_OF_PERICENTER":237.4343,"MEAN_ANOMALY":122.2292,"EPHEMERIS_TYPE":0,"CLASSIFICATION_TYPE":"U","NORAD_CAT_ID":28059,"ELEMENT_SET_NO":999,"REV_AT_EPOCH":18629,"BSTAR":0.00014127749,"MEAN_MOTION_DOT":5.66e-6,"MEAN_MOTION_DDOT":0},{"OBJECT_NAME":"CZ-2C R/B","OBJECT_ID":"2004-012C","EPOCH":"2026-03-07T15:01:43.247136","MEAN_MOTION":15.64209559,"ECCENTRICITY":0.00131193,"INCLINATION":97.7231,"RA_OF_ASC_NODE":131.7239,"ARG_OF_PERICENTER":317.9669,"MEAN_ANOMALY":42.0581,"EPHEMERIS_TYPE":0,"CLASSIFICATION_TYPE":"U","NORAD_CAT_ID":28222,"ELEMENT_SET_NO":999,"REV_AT_EPOCH":20395,"BSTAR":0.00075048854,"MEAN_MOTION_DOT":0.00072009,"MEAN_MOTION_DDOT":0},{"OBJECT_NAME":"SL-16 R/B","OBJECT_ID":"2004-021B","EPOCH":"2026-03-07T14:50:37.093632","MEAN_MOTION":14.14598705,"ECCENTRICITY":0.00039053,"INCLINATION":70.9994,"RA_OF_ASC_NODE":236.8392,"ARG_OF_PERICENTER":12.7873,"MEAN_ANOMALY":347.3348,"EPHEMERIS_TYPE":0,"CLASSIFICATION_TYPE":"U","NORAD_CAT_ID":28353,"ELEMENT_SET_NO":999,"REV_AT_EPOCH":12254,"BSTAR":-9.0298063e-5,"MEAN_MOTION_DOT":-2.21e-6,"MEAN_MOTION_DDOT":0},{"OBJECT_NAME":"CZ-4B R/B","OBJECT_ID":"2004-035C","EPOCH":"2026-03-07T14:50:59.885088","MEAN_MOTION":15.29018515,"ECCENTRICITY":0.00312301,"INCLINATION":97.3499,"RA_OF_ASC_NODE":100.8859,"ARG_OF_PERICENTER":339.1896,"MEAN_ANOMALY":20.807,"EPHEMERIS_TYPE":0,"CLASSIFICATION_TYPE":"U","NORAD_CAT_ID":28415,"ELEMENT_SET_NO":999,"REV_AT_EPOCH":17959,"BSTAR":0.00040525372,"MEAN_MOTION_DOT":0.00011516,"MEAN_MOTION_DDOT":0},{"OBJECT_NAME":"CZ-2C R/B","OBJECT_ID":"2004-046B","EPOCH":"2026-03-07T09:10:05.263968","MEAN_MOTION":14.2699115,"ECCENTRICITY":0.01397565,"INCLINATION":98.1985,"RA_OF_ASC_NODE":341.5096,"ARG_OF_PERICENTER":161.2384,"MEAN_ANOMALY":199.4023,"EPHEMERIS_TYPE":0,"CLASSIFICATION_TYPE":"U","NORAD_CAT_ID":28480,"ELEMENT_SET_NO":999,"REV_AT_EPOCH":10817,"BSTAR":7.7268727e-5,"MEAN_MOTION_DOT":1.68e-6,"MEAN_MOTION_DDOT":0},{"OBJECT_NAME":"ARIANE 5 R/B","OBJECT_ID":"2004-049H","EPOCH":"2026-03-07T11:26:42.424224","MEAN_MOTION":14.85261737,"ECCENTRICITY":0.00840918,"INCLINATION":98.2621,"RA_OF_ASC_NODE":234.851,"ARG_OF_PERICENTER":359.1171,"MEAN_ANOMALY":0.9881,"EPHEMERIS_TYPE":0,"CLASSIFICATION_TYPE":"U","NORAD_CAT_ID":28499,"ELEMENT_SET_NO":999,"REV_AT_EPOCH":14546,"BSTAR":0.00013269131,"MEAN_MOTION_DOT":1.148e-5,"MEAN_MOTION_DDOT":0},{"OBJECT_NAME":"CZ-2D R/B","OBJECT_ID":"2005-024B","EPOCH":"2026-03-07T14:13:25.430016","MEAN_MOTION":15.59917426,"ECCENTRICITY":0.00062083,"INCLINATION":97.3596,"RA_OF_ASC_NODE":81.6618,"ARG_OF_PERICENTER":52.1217,"MEAN_ANOMALY":308.0601,"EPHEMERIS_TYPE":0,"CLASSIFICATION_TYPE":"U","NORAD_CAT_ID":28738,"ELEMENT_SET_NO":999,"REV_AT_EPOCH":13945,"BSTAR":0.00068598261,"MEAN_MOTION_DOT":0.00055454,"MEAN_MOTION_DDOT":0}]
